#dP2020  6  7  0  0  0.00000000      96 __u+U ITR00 FIT  IAC
## 2109      0.00000000   900.00000000 59007 0.0000000000000
+  119   C01C02C03C04C05C06C07C08C09C10C11C12C13C14C16C19C20
+        C21C22C23C24C25C26C27C28C29C30C32C33C34C35C36C37C38
+        C45C46E01E02E03E04E05E07E08E09E11E12E13E14E15E18E19
+        E21E24E25E26E27E30E31E33E36G01G02G03G04G05G06G07G08
+        G09G10G11G12G13G14G15G16G17G18G19G20G21G22G23G24G25
+        G26G27G28G29G30G31G32J01J02J03J07R01R02R03R04R05R07
+        R08R09R11R12R13R14R15R16R17R18R19R20R21R22R23R24R26
++        13 17 13 13 13  8  8  9  8  8  7  8  8  8  8  8  8
++         8  8  7  7  7  8  8  8  8  7  8  8  8  8  8  8 10
++        10  9  4  4  4  4  5  5  4  5  4  4  4  4  4  5  4
++         4  4  4  4  4  4  4  4  4  4  4  3  3  3  4  3  3
++         3  3  4  3  3  3  3  3  3  4  3  3  4  3  4  3  3
++         3  3  4  3  3  3  3  8  8  8 14  6  6  6  6  5  5
++         5  6  5  6  6  5  5  6  6  5  6  6  5  8  5  5  8
%c M  cc GPS ccc cccc cccc cccc cccc ccccc ccccc ccccc ccccc
%c cc cc ccc ccc cccc cccc cccc cccc ccccc ccccc ccccc ccccc
%f  0.0000000  0.000000000  0.00000000000  0.000000000000000
%f  0.0000000  0.000000000  0.00000000000  0.000000000000000
%i    0    0    0    0      0      0      0      0         0
%i    0    0    0    0      0      0      0      0         0
/* INFORMATION & ANALYSIS CENTER (IAC)            RAPID DATA
/* S/V CLOCKS ARE ALIGNED TO GNSS TIME                      
/* G:C1WC2W R:C1PC2P E:C1XC5X C:C2IC6I J:C1CC2S             
/* PCV:IGS14_2101 OL/AL:FES2004  NONE     YN ORB:CoN CLK:CoN
*  2020 06 07 20 15  0.00000000
PC01 -34359.231959  24464.547526    549.853578   -439.763545
PC02   4466.895170  41923.355937   -503.291270    297.873323
PC03 -14715.986885  39520.870894  -1011.937466    872.096490
PC04 -39607.284224  14495.769509   -422.643911   -178.609742
PC05  21952.308476  36006.721660   -248.529233   -417.001968
PC06 -23225.790835  25606.871897  24248.265541    748.187334
PC07 -14850.309402  38010.128980  11808.687045     65.287441
PC08  -7267.835181  21576.649665 -35361.276998   -297.903903
PC09  -5260.743769  25902.823223  33052.946068    594.441172
PC10  -3939.726115  42157.907777  -2136.975316   -268.488201
PC11 -16722.198245 -11816.261977  19034.414443   -414.051501
PC12   4107.790814 -15349.492793  22963.739126    394.480617
PC13   6607.322503  29977.489956 -28707.106155    478.332902
PC14  -7388.535717 -17393.898433 -20478.890824    503.601814
PC16 -20620.884939  25911.642070  26068.179972   -623.016094
PC19  13581.780844   8454.056750  22897.485079    437.010096
PC20    688.039170  23166.430562  15591.068828   -857.364181
PC21  13164.962277 -24554.632738   1333.364804   -498.706282
PC22  18889.484411 -11447.542692  17045.770536   -789.793557
PC23 -17635.626748   1012.731533  21608.428009   -858.015547
PC24  -9872.472365 -25021.151055  -7467.075396   -798.152271
PC25 -20120.282430 -16285.402938  10444.999441   -644.069978
PC26   4400.785839 -18839.950243 -20124.168670    709.719136
PC27 -14576.627879  13957.264543 -19284.475261    343.583833
PC28 -27145.023244   4431.897321  -4740.076362   -218.179738
PC29  24034.434142   6739.287553 -12490.982876    239.328929
PC30   6666.295205  15104.251559 -22506.485478    328.631598
PC32 -12942.956566  24699.043738  -1249.463886   -881.333085
PC33 -13617.896404  -8415.768385 -22844.019762   -818.117248
PC34  -7121.173769 -15059.697389  22374.544252   -790.188351
PC35  27047.365892  -5247.015615   4546.094193   -807.552030
PC36  19671.718375  16944.536469 -10216.010242   -841.786169
PC37  -5411.679549  18230.571604  20441.209346   -848.567886
PC38  -4007.978505  26211.440376 -32748.053553     82.232019
PC45  17537.234775   -992.191284 -21673.861892    150.398743
PC46  10331.170881  24936.030075   7044.003779    796.121625
PE01  -1434.901123  28410.948517   8186.342676   -872.960385
PE02   1373.283247 -28441.377123  -8102.692518    138.836510
PE03  10657.336839 -22662.948408 -15760.005407   -307.327518
PE04   8693.889420  14908.780855  24060.126289   -541.275963
PE05  23999.844192 -17219.791059   1887.810224   -373.556531
PE07 -23219.606167   1788.634144 -18264.909799   -392.582181
PE08  -8914.023710 -14572.111426 -24163.673343   6167.045488
PE09  23166.375522  -2072.392258  18309.625732   6035.869475
PE11  28210.551522   7869.637642   4356.761343   3317.632979
PE12  18916.317457  17577.138302 -14491.563707   5766.493128
PE13 -28215.925609  -7914.403553  -4140.675006    401.424096
PE14  -6262.696874  22151.746307 -22852.838803  -1041.554563
PE15 -19156.355916 -17401.733513  14362.595441    864.311125
PE18   8110.489413 -16017.938190  15308.880776  -1142.077681
PE19 -12580.705863  22694.115791  14254.613180  -3304.772330
PE21 -12679.293875  15086.998350  22085.468278   -603.308617
PE24  16757.073284   7643.550203 -23180.078896   5414.532110
PE25  12737.581749 -14947.351210 -22142.098773   -511.800724
PE26 -20468.346630   6515.148121 -20366.171603   3099.208664
PE27 -16761.294018  -7296.244343  23283.445150    203.326086
PE30 -10670.327850 -25556.389467  10449.991635   3844.423200
PE31  10971.360104  25287.028745 -10788.387723   -472.791120
PE33  -1144.653001  16672.059899 -24430.614839   -466.368064
PE36  20717.314599  -6215.615771  20211.856925    549.939487
PG01  21964.439625  15109.017067   1933.306941      1.847095
PG02  -7730.112762 -19331.836286  17161.235157   -468.529778
PG03  12750.454984  11399.894292  20285.580212   -201.483917
PG04  21680.340168   2913.629717  15098.584991    -99.555802
PG05  -2519.450708 -25507.733050  -6690.563670    -14.201317
PG06   4187.254448 -14951.112337  21593.375569   -285.002933
PG07  20733.472241   1125.928667 -16525.099993   -299.203908
PG08  12411.728508  10337.083712 -21119.498702    -36.740046
PG09  25056.335673  -6956.593596   5406.441749   -232.116763
PG10 -11597.967314  19626.155097 -13338.400960   -364.594384
PG11  19839.849874  13020.568164 -12095.773716   -255.170877
PG12 -11444.305383 -12565.160585  20216.793817    108.756879
PG13  -3481.955348 -14729.260107 -21941.325496     16.430769
PG14 -11656.011273  16688.149499  17311.653900     -7.504230
PG15 -14379.904760  -9609.431773 -20553.425863   -225.824714
PG16   1091.649024  24733.001910  -9201.328927   -167.674376
PG17  19545.682280 -14667.930112  10769.065676    277.215995
PG18 -20426.103625  -1129.029538 -16963.358843    213.574803
PG19  13786.503606 -15590.460696  16183.693796   -148.255190
PG20 -14817.423117   8849.425841 -20212.768054    527.557419
PG21 -15355.571594   6765.877657 -19788.318123      8.712204
PG22  10740.713038  19132.749837  15280.731714   -779.094406
PG23  24349.183199 -11165.052956    -71.804615   -107.703950
PG24 -22259.365170 -14857.577553   -222.096847    -14.031985
PG25 -14926.985531  -1471.869113  21680.346685     10.911009
PG26  -4920.716875  25696.885358   3771.839030    221.152105
PG27    787.809647  15522.449433 -21632.963038   -314.579501
PG28  12207.982640 -20464.162125 -11301.021971    710.662868
PG29 -24924.316972   2458.608475   8835.839217   -122.630308
PG30  13320.603001  -9099.153691 -21081.818019   -236.871265
PG31  -3455.997370  15950.278753  20823.044716    -47.622312
PG32 -18137.368897  16131.423931  10692.200465    295.759637
PJ01 -26079.940366  32121.486131  -3676.046018   -290.934864
PJ02 -25051.582293  24186.260875  28674.963882     -0.393392
PJ03 -33930.194235  18853.845537 -11703.817014     -3.840345
PJ07 -25349.069239  33699.524469    -28.558513      0.006251
PR01  -7049.650074  -9025.651908 -22783.452208     62.734097
PR02 -17229.554461  10382.161994 -15604.909134    430.499826
PR03 -15061.841467  20541.967907    810.348226     16.393225
PR04  -4456.784247  18851.819108  16626.933451     51.934201
PR05   8661.771661   6538.387089  23100.086285     51.898301
PR07  14921.127352 -20673.431881  -1265.031908    -37.337275
PR08   4480.694987 -18903.736780 -16478.246616    -52.725204
PR09  10916.300925  -2932.218684 -22855.703891    136.815207
PR11  -7777.226970 -23826.389834  -4583.438081    -26.294913
PR12 -13762.356108 -17859.987150  11972.747954    137.214100
PR13 -12146.246335  -1255.814306  22378.481082    -39.711962
PR14  -3366.729175  16067.329241  19541.979948     52.046049
PR15   7214.775292  23844.268625   5511.314334    106.693681
PR16  14248.843362  17039.911826 -12453.192863     -4.011530
PR17 -14124.679371   7338.982456 -19941.165389    331.236809
PR18   4077.899471  10865.150693 -22713.332457     38.059003
PR19  19434.859653   9227.454909 -13708.560300    -96.908331
PR20  24883.265888   1437.348319   5537.783857   -413.682256
PR21  13183.335925  -7588.390818  20463.537051   -129.818708
PR22  -6576.451452 -10892.109951  22083.296540  -1158.038475
PR23 -23480.961148  -6589.581879   7458.264296    310.679822
PR24 -24737.018683   -797.571206  -6184.122887      1.836487
PR26  25292.761130   3128.479131    683.018501   -393.232742
EOF
